OBJECT_NAME,OBJECT_ID,EPOCH,MEAN_MOTION,ECCENTRICITY,INCLINATION,RA_OF_ASC_NODE,ARG_OF_PERICENTER,MEAN_ANOMALY,EPHEMERIS_TYPE,CLASSIFICATION_TYPE,NORAD_CAT_ID,ELEMENT_SET_NO,REV_AT_EPOCH,BSTAR,MEAN_MOTION_DOT,MEAN_MOTION_DDOT
ONEWEB-0473,2022-012AH,2026-06-11T16:18:35.718912,13.10372967,.00017992,87.8836,37.3738,77.8708,282.2621,0,U,51653,999,20858,-.18294101E-2,-.626E-5,0
ONEWEB-0474,2022-012AJ,2026-06-11T16:06:38.592864,13.10370528,.00016726,87.8844,37.3590,72.3887,287.7423,0,U,51654,999,20857,-.15831251E-2,-.54E-5,0
ONEWEB-0475,2022-012AK,2026-06-11T14:28:25.148640,13.17648192,.0001664,87.9135,6.9837,66.6504,293.4803,0,U,51655,999,21295,.71542E-4,.41E-6,0
ONEWEB-0490,2022-138A,2026-06-11T21:40:38.562240,13.19723842,.00016678,87.9172,306.0195,99.3326,260.7995,0,U,54113,999,17613,.29245419E-4,.25E-6,0
ONEWEB-0492,2022-138B,2026-06-11T22:17:02.813856,13.19725642,.00017379,87.9164,306.0161,105.4071,254.7254,0,U,54114,999,17614,-.18152695E-3,-.6E-6,0
ONEWEB-0495,2022-138C,2026-06-11T21:45:11.425536,13.19724452,.00011874,87.9166,306.0231,100.8434,259.2832,0,U,54115,999,17612,.15944173E-3,.77E-6,0
ONEWEB-0497,2022-138D,2026-06-11T22:03:23.205312,13.19724293,.00017621,87.9168,306.0123,99.1300,261.0033,0,U,54116,999,17611,-.15024644E-3,-.47E-6,0
ONEWEB-0499,2022-138E,2026-06-11T21:39:30.854016,13.19726163,.00016026,87.9163,306.0251,94.3953,265.7362,0,U,54117,999,17612,-.73605986E-4,-.17E-6,0
ONEWEB-0500,2022-138F,2026-06-11T21:42:54.613728,13.19723983,.00018938,87.9173,306.0183,100.2163,259.9183,0,U,54118,999,17613,.46160919E-4,.31E-6,0
ONEWEB-0501,2022-138G,2026-06-11T22:26:07.146816,13.19723607,.00013819,87.9171,306.0120,98.0525,262.0765,0,U,54119,999,17611,-.14634964E-3,-.46E-6,0
ONEWEB-0502,2022-138H,2026-06-11T22:05:38.778144,13.19724004,.00016118,87.9173,306.0037,92.7531,267.3787,0,U,54120,999,17613,-.79155995E-4,-.19E-6,0
ONEWEB-0503,2022-138J,2026-06-11T21:49:44.349312,13.19724221,.00019456,87.9175,306.0116,90.1876,269.9480,0,U,54121,999,17612,-.4341822E-4,-.4E-7,0
ONEWEB-0504,2022-138K,2026-06-11T21:31:33.008448,13.19724813,.00016488,87.9173,306.0193,92.7244,267.4078,0,U,54122,999,17613,.88168658E-4,.48E-6,0
ONEWEB-0505,2022-138L,2026-06-11T21:27:00.508032,13.19725895,.00013825,87.9170,306.0211,93.3108,266.8183,0,U,54123,999,17611,.11556001E-3,.59E-6,0
ONEWEB-0506,2022-138M,2026-06-11T22:39:45.730656,13.19723806,.00015064,87.9173,306.0077,96.9231,263.2073,0,U,54124,999,17611,-.61027547E-4,-.11E-6,0
ONEWEB-0507,2022-138N,2026-06-11T21:20:10.692960,13.19724704,.00016287,87.9164,306.0316,99.3505,260.7812,0,U,54125,999,17615,.87453597E-4,.48E-6,0
ONEWEB-0508,2022-138P,2026-06-11T23:04:47.347104,13.19723971,.00014328,87.9164,306.0167,104.4686,255.6606,0,U,54126,999,17614,.5299783E-5,.15E-6,0
ONEWEB-0509,2022-138Q,2026-06-11T22:28:22.685088,13.19719418,.00016657,87.9175,306.0105,98.3961,261.7361,0,U,54127,999,17611,-.86483044E-4,-.22E-6,0
ONEWEB-0510,2022-138R,2026-06-11T18:04:44.369184,13.20772097,.00024059,87.9192,275.5186,97.9708,262.1698,0,U,54128,999,17856,-.97508613E-4,-.27E-6,0
ONEWEB-0511,2022-138S,2026-06-11T22:23:52.039680,13.19725847,.00017884,87.9170,306.0140,88.5717,271.5620,0,U,54129,999,17614,-.21086985E-3,-.71E-6,0
ONEWEB-0512,2022-138T,2026-06-11T22:12:28.754784,13.19724680,.00015316,87.9163,306.0210,91.1822,268.9486,0,U,54130,999,17611,-.15098289E-3,-.47E-6,0
ONEWEB-0513,2022-138U,2026-06-11T22:23:41.126496,13.20268341,.00013101,87.9171,305.9642,67.7664,292.3608,0,U,54131,999,17602,-.2585667E-3,-.91E-6,0
ONEWEB-0514,2022-138V,2026-06-11T20:46:02.964576,13.19724743,.00019658,87.9174,306.0262,96.7474,263.3882,0,U,54132,999,17612,-.11726688E-3,-.34E-6,0
ONEWEB-0515,2022-138W,2026-06-11T19:34:25.032864,13.20769999,.00026118,87.9197,275.5006,114.6714,245.4692,0,U,54133,999,17859,-.150001E-6,.13E-6,0
ONEWEB-0516,2022-138X,2026-06-11T21:58:49.614528,13.19724919,.00017518,87.9165,306.0230,101.7087,258.4243,0,U,54134,999,17613,-.98262848E-4,-.26E-6,0
ONEWEB-0517,2022-138Y,2026-06-11T21:29:15.762912,13.19724329,.00019641,87.9170,306.0191,89.2117,270.9241,0,U,54135,999,17613,.1137075E-3,.58E-6,0
ONEWEB-0518,2022-138Z,2026-06-11T20:07:25.040928,13.19727097,.00017691,87.9164,306.0403,103.7294,256.4036,0,U,54136,999,17612,-.4784787E-5,.11E-6,0
ONEWEB-0519,2022-138AA,2026-06-11T22:32:58.233696,13.19726284,.00019356,87.9176,306.0109,92.0792,268.0562,0,U,54137,999,17614,-.14193404E-3,-.44E-6,0
ONEWEB-0520,2022-138AB,2026-06-11T21:33:49.374432,13.19724471,.00015636,87.9171,306.0194,98.7479,261.3831,0,U,54138,999,17612,.66513562E-4,.4E-6,0
ONEWEB-0521,2022-138AC,2026-06-11T22:21:34.819200,13.19724899,.00019826,87.9174,306.0013,92.2650,267.8710,0,U,54139,999,17607,-.17738971E-3,-.58E-6,0
