ONEWEB-0473             
1 51653U 22012AH  26162.67958008 -.00000626  00000+0 -18294-2 0  9998
2 51653  87.8836  37.3738 0001799  77.8708 282.2621 13.10372967208581
ONEWEB-0474             
1 51654U 22012AJ  26162.67128001 -.00000540  00000+0 -15831-2 0  9990
2 51654  87.8844  37.3590 0001672  72.3887 287.7423 13.10370528208575
ONEWEB-0475             
1 51655U 22012AK  26162.60306885  .00000041  00000+0  71542-4 0  9999
2 51655  87.9135   6.9837 0001664  66.6504 293.4803 13.17648192212954
ONEWEB-0490             
1 54113U 22138A   26162.90322410  .00000025  00000+0  29245-4 0  9990
2 54113  87.9172 306.0195 0001667  99.3326 260.7995 13.19723842176132
ONEWEB-0492             
1 54114U 22138B   26162.92850479 -.00000060  00000+0 -18153-3 0  9990
2 54114  87.9164 306.0161 0001737 105.4071 254.7254 13.19725642176143
ONEWEB-0495             
1 54115U 22138C   26162.90638224  .00000077  00000+0  15944-3 0  9992
2 54115  87.9166 306.0231 0001187 100.8434 259.2832 13.19724452176123
ONEWEB-0497             
1 54116U 22138D   26162.91901858 -.00000047  00000+0 -15025-3 0  9999
2 54116  87.9168 306.0123 0001762  99.1300 261.0033 13.19724293176113
ONEWEB-0499             
1 54117U 22138E   26162.90244044 -.00000017  00000+0 -73606-4 0  9993
2 54117  87.9163 306.0251 0001602  94.3953 265.7362 13.19726163176120
ONEWEB-0500             
1 54118U 22138F   26162.90479877  .00000031  00000+0  46161-4 0  9998
2 54118  87.9173 306.0183 0001893 100.2163 259.9183 13.19723983176132
ONEWEB-0501             
1 54119U 22138G   26162.93480494 -.00000046  00000+0 -14635-3 0  9997
2 54119  87.9171 306.0120 0001381  98.0525 262.0765 13.19723607176112
ONEWEB-0502             
1 54120U 22138H   26162.92058771 -.00000019  00000+0 -79156-4 0  9997
2 54120  87.9173 306.0037 0001611  92.7531 267.3787 13.19724004176133
ONEWEB-0503             
1 54121U 22138J   26162.90954108 -.00000004  00000+0 -43418-4 0  9991
2 54121  87.9175 306.0116 0001945  90.1876 269.9480 13.19724221176126
ONEWEB-0504             
1 54122U 22138K   26162.89690982  .00000048  00000+0  88169-4 0  9995
2 54122  87.9173 306.0193 0001648  92.7244 267.4078 13.19724813176131
ONEWEB-0505             
1 54123U 22138L   26162.89375588  .00000059  00000+0  11556-3 0  9995
2 54123  87.9170 306.0211 0001382  93.3108 266.8183 13.19725895176110
ONEWEB-0506             
1 54124U 22138M   26162.94427929 -.00000011  00000+0 -61028-4 0  9999
2 54124  87.9173 306.0077 0001506  96.9231 263.2073 13.19723806176117
ONEWEB-0507             
1 54125U 22138N   26162.88901265  .00000048  00000+0  87454-4 0  9992
2 54125  87.9164 306.0316 0001628  99.3505 260.7812 13.19724704176155
ONEWEB-0508             
1 54126U 22138P   26162.96165911  .00000015  00000+0  52998-5 0  9992
2 54126  87.9164 306.0167 0001432 104.4686 255.6606 13.19723971176149
ONEWEB-0509             
1 54127U 22138Q   26162.93637367 -.00000022  00000+0 -86483-4 0  9994
2 54127  87.9175 306.0105 0001665  98.3961 261.7361 13.19719418176113
ONEWEB-0510             
1 54128U 22138R   26162.75329131 -.00000027  00000+0 -97509-4 0  9998
2 54128  87.9192 275.5186 0002405  97.9708 262.1698 13.20772097178562
ONEWEB-0511             
1 54129U 22138S   26162.93324120 -.00000071  00000+0 -21087-3 0  9998
2 54129  87.9170 306.0140 0001788  88.5717 271.5620 13.19725847176148
ONEWEB-0512             
1 54130U 22138T   26162.92533281 -.00000047  00000+0 -15098-3 0  9997
2 54130  87.9163 306.0210 0001531  91.1822 268.9486 13.19724680176114
ONEWEB-0513             
1 54131U 22138U   26162.93311489 -.00000091  00000+0 -25857-3 0  9996
2 54131  87.9171 305.9642 0001310  67.7664 292.3608 13.20268341176025
ONEWEB-0514             
1 54132U 22138V   26162.86531209 -.00000034  00000+0 -11727-3 0  9991
2 54132  87.9174 306.0262 0001965  96.7474 263.3882 13.19724743176120
ONEWEB-0515             
1 54133U 22138W   26162.81556751  .00000013  00000+0 -15000-6 0  9993
2 54133  87.9197 275.5006 0002611 114.6714 245.4692 13.20769999178595
ONEWEB-0516             
1 54134U 22138X   26162.91585202 -.00000026  00000+0 -98263-4 0  9993
2 54134  87.9165 306.0230 0001751 101.7087 258.4243 13.19724919176139
ONEWEB-0517             
1 54135U 22138Y   26162.89532133  .00000058  00000+0  11371-3 0  9993
2 54135  87.9170 306.0191 0001964  89.2117 270.9241 13.19724329176134
ONEWEB-0518             
1 54136U 22138Z   26162.83848427  .00000011  00000+0 -47848-5 0  9994
2 54136  87.9164 306.0403 0001769 103.7294 256.4036 13.19727097176120
ONEWEB-0519             
1 54137U 22138AA  26162.93956289 -.00000044  00000+0 -14193-3 0  9994
2 54137  87.9176 306.0109 0001935  92.0792 268.0562 13.19726284176147
ONEWEB-0520             
1 54138U 22138AB  26162.89848813  .00000040  00000+0  66514-4 0  9992
2 54138  87.9171 306.0194 0001563  98.7479 261.3831 13.19724471176128
ONEWEB-0521             
1 54139U 22138AC  26162.93165300 -.00000058  00000+0 -17739-3 0  9996
2 54139  87.9174 306.0013 0001982  92.2650 267.8710 13.19724899176072
